[{"OBJECT_ID":"2015-048B","OBJECT_NAME":"BLOCK DM-SL R/B","NORAD_CAT_ID":"40896","OBJECT_TYPE":"ROCKET BODY","PERIOD":"1459.655","INCLINATION":"0.7347","APOGEE":"36665.863","PERIGEE":"35827.096","ECCENTRICITY":"0.009839","MEAN_MOTION":"0.98653401","TLE_LINE1":"1 40896U 15048B   16238.40839248  .00000014  00000-0  00000+0 0  9997","TLE_LINE2":"2 40896   0.7347  86.4577 0098390  53.5728 220.6946  0.98653401  3420","LAUNCH_DATE":"2015-09-14","LAUNCH_SITE":"TYURATAM MISSILE AND SPACE COMPLEX","OWNER":"COMMONWEALTH OF INDEPENDENT STATES","ORBIT_TYPE":"Unclassified","OPERATIONAL_STATUS":"N/A, derelict rocket body","satInfo":{"lng":20.262774789554857,"lat":-1.0458106652590717,"elevation":-9.478155593479817,"azimuth":294.7372252104451,"range":43338.92703791326,"height":36376.26159229518,"velocity":3.048725275010947},"x":104,"y":-273,"dx":2.860052294353318,"dy":1.0558535296407805},{"OBJECT_ID":"2015-054A","OBJECT_NAME":"SKY MUSTER","NORAD_CAT_ID":"40940","OBJECT_TYPE":"PAYLOAD","PERIOD":"1436.185","INCLINATION":"0.0207","APOGEE":"35796.134","PERIGEE":"35780.532","ECCENTRICITY":"0.000185","MEAN_MOTION":"1.0026559","TLE_LINE1":"1 40940U 15054A   16237.96932466  .00000000  00000-0  10000-3 0  9990","TLE_LINE2":"2 40940   0.0207  83.3086 0001850  65.2612 314.2648  1.00265590  3360","LAUNCH_DATE":"2015-09-30","LAUNCH_SITE":"FRENCH GUIANA","OWNER":"AUSTRALIA","ORBIT_TYPE":"Geosynchronous","OPERATIONAL_STATUS":"Operational","satInfo":{"lng":122.7608629638764,"lat":2.3098028395086128,"elevation":-6.316547721727038,"azimuth":192.23913703612357,"range":42360.65149144228,"height":35759.55397789492,"velocity":3.07595836623966},"x":252,"y":154,"dx":-1.6645054023392083,"dy":2.5866854537077653},{"OBJECT_ID":"2015-054B","OBJECT_NAME":"ARSAT 2","NORAD_CAT_ID":"40941","OBJECT_TYPE":"PAYLOAD","PERIOD":"1436.108","INCLINATION":"0.0388","APOGEE":"35792.968","PERIGEE":"35780.673","ECCENTRICITY":"0.0001458","MEAN_MOTION":"1.00270985","TLE_LINE1":"1 40941U 15054B   16238.29728104 -.00000251 +00000-0 +00000-0 0  9995","TLE_LINE2":"2 40941 000.0388 297.0810 0001458 242.6629 180.2507 01.00270985003407","LAUNCH_DATE":"2015-09-30","LAUNCH_SITE":"FRENCH GUIANA","OWNER":"ARGENTINA","ORBIT_TYPE":"Geosynchronous","OPERATIONAL_STATUS":"Operational","satInfo":{"lng":-98.81570401419916,"lat":0.3925294398057571,"elevation":-8.188003140624115,"azimuth":53.815704014199135,"range":42609.19479770621,"height":35797.69155968902,"velocity":3.0742956314965433},"x":-301,"y":43,"dx":-0.4711563751564639,"dy":-3.037977172394182},{"OBJECT_ID":"2015-059A","OBJECT_NAME":"APSTAR 9","NORAD_CAT_ID":"40982","OBJECT_TYPE":"PAYLOAD","PERIOD":"1436.102","INCLINATION":"0.0125","APOGEE":"35793.669","PERIGEE":"35779.755","ECCENTRICITY":"0.000165","MEAN_MOTION":"1.00271372","TLE_LINE1":"1 40982U 15059A   16238.67669770 -.00000293 +00000-0 +00000-0 0  9996","TLE_LINE2":"2 40982 000.0125 193.8716 0001650 031.8836 134.2250 01.00271372003237","LAUNCH_DATE":"2015-10-16","LAUNCH_SITE":"Xichang Space Center, China","OWNER":"PEOPLES REPUBLIC OF CHINA","ORBIT_TYPE":"Geosynchronous","OPERATIONAL_STATUS":"Operational","satInfo":{"lng":85.54122749201404,"lat":-0.35339518087634464,"elevation":-8.92468573348286,"azimuth":229.458772507986,"range":42651.254579993896,"height":35757.54452450702,"velocity":3.0755863155821355},"x":299,"y":-23,"dx":0.23910142600268708,"dy":3.06627814992045},{"OBJECT_ID":"2015-060A","OBJECT_NAME":"TURKSAT 4B","NORAD_CAT_ID":"40984","OBJECT_TYPE":"PAYLOAD","PERIOD":"1436.042","INCLINATION":"0.0264","APOGEE":"35795.474","PERIGEE":"35775.590","ECCENTRICITY":"0.0002358","MEAN_MOTION":"1.00275583","TLE_LINE1":"1 40984U 15060A   16238.93158790 +.00000086 +00000-0 +00000-0 0  9993","TLE_LINE2":"2 40984 000.0264 263.1935 0002358 257.4110 199.3978 01.00275583003196","LAUNCH_DATE":"2015-10-16","LAUNCH_SITE":"TYURATAM MISSILE AND SPACE COMPLEX","OWNER":"TURKEY","ORBIT_TYPE":"Geosynchronous","OPERATIONAL_STATUS":"Operational","satInfo":{"lng":99.16084512432504,"lat":-2.0149422678378848,"elevation":-10.539000215686148,"azimuth":215.83915487567498,"range":42851.78064951445,"height":35776.79971266022,"velocity":3.075259631991566},"x":296,"y":45,"dx":-0.48960150635044586,"dy":3.036035600768917},{"OBJECT_ID":"2015-063A","OBJECT_NAME":"CHINASAT 2C","NORAD_CAT_ID":"41021","OBJECT_TYPE":"PAYLOAD","PERIOD":"1436.139","INCLINATION":"0.0498","APOGEE":"35791.544","PERIGEE":"35783.305","ECCENTRICITY":"9.77e-05","MEAN_MOTION":"1.00268832","TLE_LINE1":"1 41021U 15063A   16239.04359612 -.00000351  00000-0  00000+0 0  9993","TLE_LINE2":"2 41021   0.0498 275.3258 0000977 291.0073 247.5065  1.00268832  3099","LAUNCH_DATE":"2015-11-03","LAUNCH_SITE":"Xichang Space Center, China","OWNER":"PEOPLES REPUBLIC OF CHINA","ORBIT_TYPE":"Geosynchronous","OPERATIONAL_STATUS":"Operational","satInfo":{"lng":48.531908392627756,"lat":-0.00034398906929473613,"elevation":-8.572236198837185,"azimuth":266.46809160737223,"range":42650.8596819535,"height":35796.2582114478,"velocity":3.074212227679152},"x":224,"y":-190,"dx":2.035752089962619,"dy":2.3035829155957996},{"OBJECT_ID":"2015-065A","OBJECT_NAME":"GSAT 15","NORAD_CAT_ID":"41028","OBJECT_TYPE":"PAYLOAD","PERIOD":"1436.120","INCLINATION":"0.0393","APOGEE":"35788.162","PERIGEE":"35785.936","ECCENTRICITY":"2.64e-05","MEAN_MOTION":"1.0027017","TLE_LINE1":"1 41028U 15065A   16238.81112160 -.00000285 +00000-0 +00000-0 0  9998","TLE_LINE2":"2 41028 000.0393 292.3228 0000264 136.7941 290.8794 01.00270170002934","LAUNCH_DATE":"2015-11-10","LAUNCH_SITE":"FRENCH GUIANA","OWNER":"INDIA","ORBIT_TYPE":"Geosynchronous","OPERATIONAL_STATUS":"Operational","satInfo":{"lng":56.64319982475155,"lat":0.337414160076895,"elevation":-8.244445142547812,"azimuth":258.35680017524845,"range":42602.642722866534,"height":35784.950298688644,"velocity":3.0748001594152035},"x":250,"y":-157,"dx":1.690682329168738,"dy":2.5682658122118767},{"OBJECT_ID":"2015-065B","OBJECT_NAME":"BADR 7","NORAD_CAT_ID":"41029","OBJECT_TYPE":"PAYLOAD","PERIOD":"1436.084","INCLINATION":"0.0619","APOGEE":"35805.464","PERIGEE":"35767.229","ECCENTRICITY":"0.0004534","MEAN_MOTION":"1.00272676","TLE_LINE1":"1 41029U 15065B   16238.00076053  .00000119  00000-0  00000+0 0  9994","TLE_LINE2":"2 41029   0.0619 260.3049 0004534 316.0179 143.6416  1.00272676  2986","LAUNCH_DATE":"2015-11-10","LAUNCH_SITE":"FRENCH GUIANA","OWNER":"ARAB SATELLITE COMMUNICATIONS ORGANIZATION","ORBIT_TYPE":"Geosynchronous","OPERATIONAL_STATUS":"Operational","satInfo":{"lng":63.53920344661558,"lat":-1.1082339693640153,"elevation":-9.656989700563091,"azimuth":251.46079655338443,"range":42751.87702029314,"height":35775.809087640744,"velocity":3.0745075775512927},"x":268,"y":-128,"dx":1.3699555918004327,"dy":2.752420484031291},{"OBJECT_ID":"2015-067A","OBJECT_NAME":"LAOSAT 1","NORAD_CAT_ID":"41034","OBJECT_TYPE":"PAYLOAD","PERIOD":"1436.096","INCLINATION":"0.0083","APOGEE":"35790.778","PERIGEE":"35782.387","ECCENTRICITY":"9.95e-05","MEAN_MOTION":"1.00271836","TLE_LINE1":"1 41034U 15067A   16238.71417546 -.00000370  00000-0  00000+0 0  9996","TLE_LINE2":"2 41034   0.0083 308.3487 0000995 206.5789 205.0710  1.00271836  2924","LAUNCH_DATE":"2015-11-20","LAUNCH_SITE":"Xichang Space Center, China","OWNER":"LAOS","ORBIT_TYPE":"Geosynchronous","OPERATIONAL_STATUS":"Operational","satInfo":{"lng":112.84476157766873,"lat":-0.9825527307780567,"elevation":-9.52937519223301,"azimuth":202.15523842233125,"range":42763.817187062436,"height":35801.77170763132,"velocity":3.07426339510299},"x":276,"y":111,"dx":-1.1935386832572499,"dy":2.8331185704164787},{"OBJECT_ID":"2015-068A","OBJECT_NAME":"TELSTAR 12V","NORAD_CAT_ID":"41036","OBJECT_TYPE":"PAYLOAD","PERIOD":"1436.098","INCLINATION":"0.0119","APOGEE":"35795.513","PERIGEE":"35777.737","ECCENTRICITY":"0.0002108","MEAN_MOTION":"1.00271683","TLE_LINE1":"1 41036U 15068A   16239.11171681 -.00000147  00000-0  00000+0 0  9993","TLE_LINE2":"2 41036   0.0119 156.8323 0002108  23.2155 179.9452  1.00271683  2810","LAUNCH_DATE":"2015-11-24","LAUNCH_SITE":"TANEGASHIMA SPACE CENTER","OWNER":"CANADA","ORBIT_TYPE":"Geosynchronous","OPERATIONAL_STATUS":"Operational","satInfo":{"lng":-139.75472878137032,"lat":0.9930087924315089,"elevation":-7.609329405459463,"azimuth":94.7547287813703,"range":42499.60192903725,"height":35753.53413187758,"velocity":3.0761237484469865},"x":-197,"y":218,"dx":-2.3479615565671095,"dy":-1.9873635411374782},{"OBJECT_ID":"2015-073A","OBJECT_NAME":"CHINASAT 1C","NORAD_CAT_ID":"41103","OBJECT_TYPE":"PAYLOAD","PERIOD":"1436.088","INCLINATION":"0.0473","APOGEE":"35794.215","PERIGEE":"35778.640","ECCENTRICITY":"0.0001847","MEAN_MOTION":"1.00272388","TLE_LINE1":"1 41103U 15073A   16238.99104907 -.00000179 +00000-0 +00000-0 0  9992","TLE_LINE2":"2 41103 000.0473 268.9641 0001847 292.8492 211.1296 01.00272388002754","LAUNCH_DATE":"2015-12-09","LAUNCH_SITE":"Xichang Space Center, China","OWNER":"PEOPLES REPUBLIC OF CHINA","ORBIT_TYPE":"Geosynchronous","OPERATIONAL_STATUS":"Operational","satInfo":{"lng":68.96521443688573,"lat":-1.026897803951915,"elevation":-9.574943539830068,"azimuth":246.0347855631143,"range":42756.94027405311,"height":35789.916616355586,"velocity":3.074408150373277},"x":280,"y":-103,"dx":1.103511709478751,"dy":2.86953783423828}]